start=new Date('2022-02-15T00:00:00.000Z').valueOf();
sats=[{"MEAN_MOTION_DOT":"-0.00001578","PERIAPSIS":"546.047","TLE_LINE1":"1 45785U 20038BH  22045.61586713 -.00001578  00000-0 -87081-4 0  9993","REV_AT_EPOCH":"9307","LAUNCH_DATE":"2020-06-13","RCS_SIZE":"LARGE","OBJECT_ID":"2020-038BH","ECCENTRICITY":"0.00017350","BSTAR":"-0.00008708100000","MEAN_MOTION_DDOT":"0.0000000000000","SEMIMAJOR_AXIS":"6925.383","PERIOD":"95.593","OBJECT_TYPE":"PAYLOAD","CENTER_NAME":"EARTH","OBJECT_NAME":"STARLINK-1512","FILE":"3300727","APOAPSIS":"548.450","SITE":"AFETR","MEAN_MOTION":"15.06388639","REF_FRAME":"TEME","DECAY_DATE":null,"RA_OF_ASC_NODE":"18.8790","GP_ID":"195964372","TLE_LINE2":"2 45785  53.0551  18.8790 0001735  60.1799 299.9362 15.06388639 93079","INCLINATION":"53.0551","MEAN_ELEMENT_THEORY":"SGP4","ARG_OF_PERICENTER":"60.1799","ELEMENT_SET_NO":"999","CLASSIFICATION_TYPE":"U","NORAD_CAT_ID":"45785","COUNTRY_CODE":"US","TIME_SYSTEM":"UTC","EPHEMERIS_TYPE":"0","EPOCH":"2022-02-14T14:46:50.920032","MEAN_ANOMALY":"299.9362"},{"DECAY_DATE":null,"TLE_LINE2":"2 45786  53.0571  20.1384 0001619  59.3720 300.7428 15.06392001 93030","RA_OF_ASC_NODE":"20.1384","GP_ID":"195934638","SITE":"AFETR","APOAPSIS":"548.359","MEAN_MOTION":"15.06392001","REF_FRAME":"TEME","ELEMENT_SET_NO":"999","MEAN_ELEMENT_THEORY":"SGP4","INCLINATION":"53.0571","ARG_OF_PERICENTER":"59.3720","NORAD_CAT_ID":"45786","CLASSIFICATION_TYPE":"U","EPOCH":"2022-02-14T08:03:26.879328","TIME_SYSTEM":"UTC","COUNTRY_CODE":"US","EPHEMERIS_TYPE":"0","MEAN_ANOMALY":"300.7428","TLE_LINE1":"1 45786U 20038BJ  22045.33572777 -.00001470  00000-0 -79836-4 0  9998","LAUNCH_DATE":"2020-06-13","REV_AT_EPOCH":"9303","MEAN_MOTION_DOT":"-0.00001470","PERIAPSIS":"546.117","OBJECT_ID":"2020-038BJ","RCS_SIZE":"LARGE","ECCENTRICITY":"0.00016190","BSTAR":"-0.00007983600000","OBJECT_NAME":"STARLINK-1513","FILE":"3300472","MEAN_MOTION_DDOT":"0.0000000000000","OBJECT_TYPE":"PAYLOAD","CENTER_NAME":"EARTH","SEMIMAJOR_AXIS":"6925.373","PERIOD":"95.593"},{"CLASSIFICATION_TYPE":"U","NORAD_CAT_ID":"45787","MEAN_ANOMALY":"295.8003","TIME_SYSTEM":"UTC","COUNTRY_CODE":"US","EPHEMERIS_TYPE":"0","EPOCH":"2022-02-14T09:49:34.971456","REF_FRAME":"TEME","MEAN_MOTION":"15.06400705","APOAPSIS":"548.346","SITE":"AFETR","GP_ID":"195935390","RA_OF_ASC_NODE":"19.8147","TLE_LINE2":"2 45787  53.0550  19.8147 0001638  64.3155 295.8003 15.06400705 93044","DECAY_DATE":null,"ARG_OF_PERICENTER":"64.3155","INCLINATION":"53.0550","MEAN_ELEMENT_THEORY":"SGP4","ELEMENT_SET_NO":"999","BSTAR":"-0.00006101800000","PERIOD":"95.592","SEMIMAJOR_AXIS":"6925.346","OBJECT_TYPE":"PAYLOAD","CENTER_NAME":"EARTH","MEAN_MOTION_DDOT":"0.0000000000000","FILE":"3300472","OBJECT_NAME":"STARLINK-1517","PERIAPSIS":"546.077","MEAN_MOTION_DOT":"-0.00001190","REV_AT_EPOCH":"9304","LAUNCH_DATE":"2020-06-13","TLE_LINE1":"1 45787U 20038BK  22045.40943254 -.00001190  00000-0 -61018-4 0  9991","ECCENTRICITY":"0.00016380","RCS_SIZE":"LARGE","OBJECT_ID":"2020-038BK"},{"ELEMENT_SET_NO":"999","MEAN_ELEMENT_THEORY":"SGP4","INCLINATION":"53.0535","ARG_OF_PERICENTER":"69.1953","DECAY_DATE":null,"TLE_LINE2":"2 46027  53.0535 308.4413 0001482  69.1953 290.9195 15.06388356 85219","RA_OF_ASC_NODE":"308.4413","GP_ID":"195965648","SITE":"AFETR","APOAPSIS":"548.276","MEAN_MOTION":"15.06388356","REF_FRAME":"TEME","EPOCH":"2022-02-14T17:08:49.080480","EPHEMERIS_TYPE":"0","COUNTRY_CODE":"US","TIME_SYSTEM":"UTC","MEAN_ANOMALY":"290.9195","NORAD_CAT_ID":"46027","CLASSIFICATION_TYPE":"U","OBJECT_ID":"2020-055A","RCS_SIZE":"LARGE","ECCENTRICITY":"0.00014820","TLE_LINE1":"1 46027U 20055A   22045.71445695  .00003714  00000-0  26821-3 0  9992","REV_AT_EPOCH":"8521","LAUNCH_DATE":"2020-08-07","MEAN_MOTION_DOT":"0.00003714","PERIAPSIS":"546.223","OBJECT_NAME":"STARLINK-1522","FILE":"3300727","MEAN_MOTION_DDOT":"0.0000000000000","OBJECT_TYPE":"PAYLOAD","CENTER_NAME":"EARTH","SEMIMAJOR_AXIS":"6925.384","PERIOD":"95.593","BSTAR":"0.00026821000000"},{"EPOCH":"2022-02-14T17:30:02.674368","COUNTRY_CODE":"US","TIME_SYSTEM":"UTC","EPHEMERIS_TYPE":"0","MEAN_ANOMALY":"299.1199","CLASSIFICATION_TYPE":"U","NORAD_CAT_ID":"46028","MEAN_ELEMENT_THEORY":"SGP4","INCLINATION":"53.0542","ARG_OF_PERICENTER":"60.9928","ELEMENT_SET_NO":"999","SITE":"AFETR","APOAPSIS":"548.203","MEAN_MOTION":"15.06388368","REF_FRAME":"TEME","DECAY_DATE":null,"TLE_LINE2":"2 46028  53.0542 308.3709 0001377  60.9928 299.1199 15.06388368 85239","GP_ID":"195965898","RA_OF_ASC_NODE":"308.3709","MEAN_MOTION_DDOT":"0.0000000000000","OBJECT_TYPE":"PAYLOAD","CENTER_NAME":"EARTH","PERIOD":"95.593","SEMIMAJOR_AXIS":"6925.384","OBJECT_NAME":"STARLINK-1523","FILE":"3300727","BSTAR":"0.00024529000000","OBJECT_ID":"2020-055B","RCS_SIZE":"LARGE","ECCENTRICITY":"0.00013770","MEAN_MOTION_DOT":"0.00003373","PERIAPSIS":"546.296","TLE_LINE1":"1 46028U 20055B   22045.72919762  .00003373  00000-0  24529-3 0  9999","REV_AT_EPOCH":"8523","LAUNCH_DATE":"2020-08-07"},{"OBJECT_NAME":"STARLINK-1526","FILE":"3300727","MEAN_MOTION_DDOT":"0.0000000000000","SEMIMAJOR_AXIS":"6925.387","PERIOD":"95.593","OBJECT_TYPE":"PAYLOAD","CENTER_NAME":"EARTH","BSTAR":"0.00070016000000","RCS_SIZE":"LARGE","OBJECT_ID":"2020-055C","ECCENTRICITY":"0.00014610","TLE_LINE1":"1 46029U 20055C   22045.72183419  .00010159  00000-0  70016-3 0  9994","LAUNCH_DATE":"2020-08-07","REV_AT_EPOCH":"8522","MEAN_MOTION_DOT":"0.00010159","PERIAPSIS":"546.240","TIME_SYSTEM":"UTC","COUNTRY_CODE":"US","EPHEMERIS_TYPE":"0","EPOCH":"2022-02-14T17:19:26.474016","MEAN_ANOMALY":"290.5013","NORAD_CAT_ID":"46029","CLASSIFICATION_TYPE":"U","ELEMENT_SET_NO":"999","INCLINATION":"53.0530","MEAN_ELEMENT_THEORY":"SGP4","ARG_OF_PERICENTER":"69.6132","DECAY_DATE":null,"GP_ID":"195964648","RA_OF_ASC_NODE":"308.4225","TLE_LINE2":"2 46029  53.0530 308.4225 0001461  69.6132 290.5013 15.06387414 85228","APOAPSIS":"548.264","SITE":"AFETR","REF_FRAME":"TEME","MEAN_MOTION":"15.06387414"},{"BSTAR":"0.00025377000000","FILE":"3300727","OBJECT_NAME":"STARLINK-1534","CENTER_NAME":"EARTH","OBJECT_TYPE":"PAYLOAD","PERIOD":"95.594","SEMIMAJOR_AXIS":"6925.415","MEAN_MOTION_DDOT":"0.0000000000000","LAUNCH_DATE":"2020-08-07","REV_AT_EPOCH":"8518","TLE_LINE1":"1 46030U 20055D   22045.74027536  .00003498  00000-0  25377-3 0  9993","PERIAPSIS":"546.261","MEAN_MOTION_DOT":"0.00003498","ECCENTRICITY":"0.00014710","OBJECT_ID":"2020-055D","RCS_SIZE":"LARGE","NORAD_CAT_ID":"46030","CLASSIFICATION_TYPE":"U","MEAN_ANOMALY":"270.7621","EPOCH":"2022-02-14T17:45:59.791104","EPHEMERIS_TYPE":"0","COUNTRY_CODE":"US","TIME_SYSTEM":"UTC","TLE_LINE2":"2 46030  53.0532 308.3165 0001471  89.3537 270.7621 15.06378288 85182","GP_ID":"195964898","RA_OF_ASC_NODE":"308.3165","DECAY_DATE":null,"REF_FRAME":"TEME","MEAN_MOTION":"15.06378288","SITE":"AFETR","APOAPSIS":"548.299","ELEMENT_SET_NO":"999","ARG_OF_PERICENTER":"89.3537","MEAN_ELEMENT_THEORY":"SGP4","INCLINATION":"53.0532"},{"ELEMENT_SET_NO":"999","MEAN_ELEMENT_THEORY":"SGP4","INCLINATION":"53.0545","ARG_OF_PERICENTER":"71.2898","DECAY_DATE":null,"TLE_LINE2":"2 46031  53.0545 311.5854 0001639  71.2898 288.8269 15.06380514 85109","RA_OF_ASC_NODE":"311.5854","GP_ID":"195934163","SITE":"AFETR","APOAPSIS":"548.408","MEAN_MOTION":"15.06380514","REF_FRAME":"TEME","EPOCH":"2022-02-14T00:20:20.412096","COUNTRY_CODE":"US","EPHEMERIS_TYPE":"0","TIME_SYSTEM":"UTC","MEAN_ANOMALY":"288.8269","NORAD_CAT_ID":"46031","CLASSIFICATION_TYPE":"U","OBJECT_ID":"2020-055E","RCS_SIZE":"LARGE","ECCENTRICITY":"0.00016390","TLE_LINE1":"1 46031U 20055E   22045.01412514 -.00002768  00000-0 -16705-3 0  9994","REV_AT_EPOCH":"8510","LAUNCH_DATE":"2020-08-07","MEAN_MOTION_DOT":"-0.00002768","PERIAPSIS":"546.138","OBJECT_NAME":"STARLINK-1544","FILE":"3300472","MEAN_MOTION_DDOT":"0.0000000000000","CENTER_NAME":"EARTH","OBJECT_TYPE":"PAYLOAD","SEMIMAJOR_AXIS":"6925.408","PERIOD":"95.593","BSTAR":"-0.00016705000000"},{"ECCENTRICITY":"0.00015090","OBJECT_ID":"2020-055F","RCS_SIZE":"LARGE","PERIAPSIS":"546.217","MEAN_MOTION_DOT":"0.00000402","LAUNCH_DATE":"2020-08-07","REV_AT_EPOCH":"8518","TLE_LINE1":"1 46032U 20055F   22045.44169807  .00000402  00000-0  45904-4 0  9991","OBJECT_TYPE":"PAYLOAD","CENTER_NAME":"EARTH","SEMIMAJOR_AXIS":"6925.397","PERIOD":"95.593","MEAN_MOTION_DDOT":"0.0000000000000","FILE":"3300472","OBJECT_NAME":"STARLINK-1555","BSTAR":"0.00004590400000","ARG_OF_PERICENTER":"67.7989","MEAN_ELEMENT_THEORY":"SGP4","INCLINATION":"53.0537","ELEMENT_SET_NO":"999","REF_FRAME":"TEME","MEAN_MOTION":"15.06384294","SITE":"AFETR","APOAPSIS":"548.307","TLE_LINE2":"2 46032  53.0537 309.6570 0001509  67.7989 292.3160 15.06384294 85188","RA_OF_ASC_NODE":"309.6570","GP_ID":"195934915","DECAY_DATE":null,"MEAN_ANOMALY":"292.3160","EPOCH":"2022-02-14T10:36:02.713248","COUNTRY_CODE":"US","EPHEMERIS_TYPE":"0","TIME_SYSTEM":"UTC","CLASSIFICATION_TYPE":"U","NORAD_CAT_ID":"46032"},{"BSTAR":"0.00063604000000","OBJECT_NAME":"STARLINK-1556","FILE":"3300727","MEAN_MOTION_DDOT":"0.0000000000000","OBJECT_TYPE":"PAYLOAD","CENTER_NAME":"EARTH","SEMIMAJOR_AXIS":"6925.347","PERIOD":"95.592","TLE_LINE1":"1 46033U 20055G   22045.75499494  .00009205  00000-0  63604-3 0  9990","LAUNCH_DATE":"2020-08-07","REV_AT_EPOCH":"8520","MEAN_MOTION_DOT":"0.00009205","PERIAPSIS":"546.198","OBJECT_ID":"2020-055G","RCS_SIZE":"LARGE","ECCENTRICITY":"0.00014640","NORAD_CAT_ID":"46033","CLASSIFICATION_TYPE":"U","EPOCH":"2022-02-14T18:07:11.562816","TIME_SYSTEM":"UTC","COUNTRY_CODE":"US","EPHEMERIS_TYPE":"0","MEAN_ANOMALY":"298.9915","DECAY_DATE":null,"TLE_LINE2":"2 46033  53.0548 308.2633 0001464  61.1221 298.9915 15.06400604 85200","RA_OF_ASC_NODE":"308.2633","GP_ID":"195964148","SITE":"AFETR","APOAPSIS":"548.226","REF_FRAME":"TEME","MEAN_MOTION":"15.06400604","ELEMENT_SET_NO":"999","MEAN_ELEMENT_THEORY":"SGP4","INCLINATION":"53.0548","ARG_OF_PERICENTER":"61.1221"}];
